[{"OBJECT_NAME":"STARLINK-36115","OBJECT_ID":"2025-286X","EPOCH":"2026-03-09T22:39:56.299968","MEAN_MOTION":15.30194683,"ECCENTRICITY":0.00010504,"INCLINATION":53.1623,"RA_OF_ASC_NODE":357.4163,"ARG_OF_PERICENTER":75.2807,"MEAN_ANOMALY":284.831,"EPHEMERIS_TYPE":0,"CLASSIFICATION_TYPE":"U","NORAD_CAT_ID":66946,"ELEMENT_SET_NO":999,"REV_AT_EPOCH":1545,"BSTAR":0.00083959731,"MEAN_MOTION_DOT":0.00024585,"MEAN_MOTION_DDOT":0},{"OBJECT_NAME":"TRANSPORTER-1 OBJECT Z","OBJECT_ID":"2021-006Z","EPOCH":"2026-03-09T22:55:57.522432","MEAN_MOTION":15.30965056,"ECCENTRICITY":0.00100878,"INCLINATION":97.2377,"RA_OF_ASC_NODE":113.4736,"ARG_OF_PERICENTER":179.6869,"MEAN_ANOMALY":180.438,"EPHEMERIS_TYPE":0,"CLASSIFICATION_TYPE":"U","NORAD_CAT_ID":47436,"ELEMENT_SET_NO":999,"REV_AT_EPOCH":28420,"BSTAR":0.00024088983,"MEAN_MOTION_DOT":7.143e-5,"MEAN_MOTION_DDOT":0}]
